{"type": "FeatureCollection", "features": [ {"type": "Feature", "properties": {"norad_id": 66406, "name": "STARLINK-34840", "group": "last-30-days", "lat": 15.5247106017976, "lon": 108.81928160992949, "alt_km": 416.8089045189872, "timestamp": "2025-12-04T23:34:04.489766+00:00", "meta": {"OBJECT_NAME": "STARLINK-34840", "OBJECT_ID": "2025-257AC", "EPOCH": "2025-12-04T15:08:17.830752", "MEAN_MOTION": 15.49343612, "ECCENTRICITY": 0.00015287, "INCLINATION": 53.159, "RA_OF_ASC_NODE": 302.5205, "ARG_OF_PERICENTER": 83.4462, "MEAN_ANOMALY": 276.6721, "EPHEMERIS_TYPE": 0, "CLASSIFICATION_TYPE": "U", "NORAD_CAT_ID": 66406, "ELEMENT_SET_NO": 999, "REV_AT_EPOCH": 506, "BSTAR": 0.0022591517, "MEAN_MOTION_DOT": 0.00127421, "MEAN_MOTION_DDOT": 0}, "tle": {"line1": "1 66406U 25257AC  25338.63076193  .00127421  00000+0  22592-2 0  9997", "line2": "2 66406  53.1590 302.5205 0001528  83.4462 276.6721 15.49343612  5067"}}, "geometry": {"type": "Point", "coordinates": [108.81928160992949, 15.5247106017976]}}, {"type": "Feature", "properties": {"norad_id": 66407, "name": "STARLINK-35686", "group": "last-30-days", "lat": 18.495095505436282, "lon": 106.32454694256, "alt_km": 416.23074636260753, "timestamp": "2025-12-04T23:34:04.489777+00:00", "meta": {"OBJECT_NAME": "STARLINK-35686", "OBJECT_ID": "2025-257AD", "EPOCH": "2025-12-04T15:09:17.307648", "MEAN_MOTION": 15.49354281, "ECCENTRICITY": 0.0001432, "INCLINATION": 53.1591, "RA_OF_ASC_NODE": 302.5257, "ARG_OF_PERICENTER": 80.3679, "MEAN_ANOMALY": 279.7491, "EPHEMERIS_TYPE": 0, "CLASSIFICATION_TYPE": "U", "NORAD_CAT_ID": 66407, "ELEMENT_SET_NO": 999, "REV_AT_EPOCH": 512, "BSTAR": 0.0030392, "MEAN_MOTION_DOT": 0.00172642, "MEAN_MOTION_DDOT": 0}, "tle": {"line1": "1 66407U 25257AD  25338.63145032  .00172642  00000+0  30392-2 0  9999", "line2": "2 66407  53.1591 302.5257 0001432  80.3679 279.7491 15.49354281  5125"}}, "geometry": {"type": "Point", "coordinates": [106.32454694256, 18.495095505436282]}}, {"type": "Feature", "properties": {"norad_id": 66408, "name": "STARLINK-35679", "group": "last-30-days", "lat": 16.928850877341603, "lon": 107.65443129442603, "alt_km": 416.4906876589421, "timestamp": "2025-12-04T23:34:04.489786+00:00", "meta": {"OBJECT_NAME": "STARLINK-35679", "OBJECT_ID": "2025-257AE", "EPOCH": "2025-12-04T10:30:06.854112", "MEAN_MOTION": 15.49361629, "ECCENTRICITY": 0.0001443, "INCLINATION": 53.1595, "RA_OF_ASC_NODE": 303.4498, "ARG_OF_PERICENTER": 80.5136, "MEAN_ANOMALY": 279.6036, "EPHEMERIS_TYPE": 0, "CLASSIFICATION_TYPE": "U", "NORAD_CAT_ID": 66408, "ELEMENT_SET_NO": 999, "REV_AT_EPOCH": 509, "BSTAR": 0.0018523, "MEAN_MOTION_DOT": 0.00104147, "MEAN_MOTION_DDOT": 0}, "tle": {"line1": "1 66408U 25257AE  25338.43757933  .00104147  00000+0  18523-2 0  9994", "line2": "2 66408  53.1595 303.4498 0001443  80.5136 279.6036 15.49361629  5093"}}, "geometry": {"type": "Point", "coordinates": [107.65443129442603, 16.928850877341603]}}, {"type": "Feature", "properties": {"norad_id": 66409, "name": "CHUTIAN-2 A", "group": "last-30-days", "lat": -74.05001564127772, "lon": 74.4991802425757, "alt_km": 731.9819328819995, "timestamp": "2025-12-04T23:34:04.489799+00:00", "meta": {"OBJECT_NAME": "CHUTIAN-2 A", "OBJECT_ID": "2025-256A", "EPOCH": "2025-12-04T18:57:04.245408", "MEAN_MOTION": 14.49919613, "ECCENTRICITY": 0.0013392, "INCLINATION": 98.2767, "RA_OF_ASC_NODE": 43.6917, "ARG_OF_PERICENTER": 201.6703, "MEAN_ANOMALY": 158.3926, "EPHEMERIS_TYPE": 0, "CLASSIFICATION_TYPE": "U", "NORAD_CAT_ID": 66409, "ELEMENT_SET_NO": 999, "REV_AT_EPOCH": 372, "BSTAR": 4.8781e-05, "MEAN_MOTION_DOT": 1.45e-06, "MEAN_MOTION_DDOT": 0}, "tle": {"line1": "1 66409U 25256A   25338.78963247  .00000145  00000+0  48781-4 0  9993", "line2": "2 66409  98.2767  43.6917 0013392 201.6703 158.3926 14.49919613  3726"}}, "geometry": {"type": "Point", "coordinates": [74.4991802425757, -74.05001564127772]}}, {"type": "Feature", "properties": {"norad_id": 66410, "name": "CHUTIAN-2 B", "group": "last-30-days", "lat": -9.570214235000648, "lon": 45.32318308997038, "alt_km": 734.2542242016889, "timestamp": "2025-12-04T23:34:04.489810+00:00", "meta": {"OBJECT_NAME": "CHUTIAN-2 B", "OBJECT_ID": "2025-256B", "EPOCH": "2025-12-04T18:38:50.985600", "MEAN_MOTION": 14.51009595, "ECCENTRICITY": 0.0013345, "INCLINATION": 98.2801, "RA_OF_ASC_NODE": 43.7145, "ARG_OF_PERICENTER": 205.9189, "MEAN_ANOMALY": 154.1338, "EPHEMERIS_TYPE": 0, "CLASSIFICATION_TYPE": "U", "NORAD_CAT_ID": 66410, "ELEMENT_SET_NO": 999, "REV_AT_EPOCH": 372, "BSTAR": 0.0003323, "MEAN_MOTION_DOT": 1.272e-05, "MEAN_MOTION_DDOT": 0}, "tle": {"line1": "1 66410U 25256B   25338.77697900  .00001272  00000+0  33230-3 0  9998", "line2": "2 66410  98.2801  43.7145 0013345 205.9189 154.1338 14.51009595  3727"}}, "geometry": {"type": "Point", "coordinates": [45.32318308997038, -9.570214235000648]}}, {"type": "Feature", "properties": {"norad_id": 66411, "name": "ZK-1A R/B", "group": "last-30-days", "lat": -19.00784557777013, "lon": 49.09216199977286, "alt_km": 509.17127970877664, "timestamp": "2025-12-04T23:34:04.489820+00:00", "meta": {"OBJECT_NAME": "ZK-1A R/B", "OBJECT_ID": "2025-256C", "EPOCH": "2025-12-04T15:39:23.822784", "MEAN_MOTION": 15.0167971, "ECCENTRICITY": 0.0229312, "INCLINATION": 98.3247, "RA_OF_ASC_NODE": 45.8472, "ARG_OF_PERICENTER": 271.9995, "MEAN_ANOMALY": 85.4983, "EPHEMERIS_TYPE": 0, "CLASSIFICATION_TYPE": "U", "NORAD_CAT_ID": 66411, "ELEMENT_SET_NO": 999, "REV_AT_EPOCH": 383, "BSTAR": 0.0010702, "MEAN_MOTION_DOT": 0.00024635, "MEAN_MOTION_DDOT": 0}, "tle": {"line1": "1 66411U 25256C   25338.65235906  .00024635  00000+0  10702-2 0  9996", "line2": "2 66411  98.3247  45.8472 0229312 271.9995  85.4983 15.01679710  3832"}}, "geometry": {"type": "Point", "coordinates": [49.09216199977286, -19.00784557777013]}}, {"type": "Feature", "properties": {"norad_id": 66412, "name": "HULIANWANG DIGUI 13A", "group": "last-30-days", "lat": -15.880226431943598, "lon": -79.19145671178595, "alt_km": 805.9052405116236, "timestamp": "2025-12-04T23:34:04.489830+00:00", "meta": {"OBJECT_NAME": "HULIANWANG DIGUI 13A", "OBJECT_ID": "2025-258A", "EPOCH": "2025-12-04T15:14:28.986144", "MEAN_MOTION": 14.23493388, "ECCENTRICITY": 0.00140766, "INCLINATION": 50.0043, "RA_OF_ASC_NODE": 296.086, "ARG_OF_PERICENTER": 329.1649, "MEAN_ANOMALY": 30.8436, "EPHEMERIS_TYPE": 0, "CLASSIFICATION_TYPE": "U", "NORAD_CAT_ID": 66412, "ELEMENT_SET_NO": 999, "REV_AT_EPOCH": 350, "BSTAR": 0.00012213647, "MEAN_MOTION_DOT": 1.2e-06, "MEAN_MOTION_DDOT": 0}, "tle": {"line1": "1 66412U 25258A   25338.63505771  .00000120  00000+0  12214-3 0  9991", "line2": "2 66412  50.0043 296.0860 0014076 329.1649  30.8436 14.23493388  3503"}}, "geometry": {"type": "Point", "coordinates": [-79.19145671178595, -15.880226431943598]}}, {"type": "Feature", "properties": {"norad_id": 66413, "name": "HULIANWANG DIGUI 13B", "group": "last-30-days", "lat": -41.72015024063042, "lon": -113.78116768426672, "alt_km": 809.5195336790703, "timestamp": "2025-12-04T23:34:04.489841+00:00", "meta": {"OBJECT_NAME": "HULIANWANG DIGUI 13B", "OBJECT_ID": "2025-258B", "EPOCH": "2025-12-04T15:25:31.725984", "MEAN_MOTION": 14.23484219, "ECCENTRICITY": 0.00134086, "INCLINATION": 50.0006, "RA_OF_ASC_NODE": 296.1162, "ARG_OF_PERICENTER": 330.0056, "MEAN_ANOMALY": 30.0087, "EPHEMERIS_TYPE": 0, "CLASSIFICATION_TYPE": "U", "NORAD_CAT_ID": 66413, "ELEMENT_SET_NO": 999, "REV_AT_EPOCH": 350, "BSTAR": 0.00014276602, "MEAN_MOTION_DOT": 1.68e-06, "MEAN_MOTION_DDOT": 0}, "tle": {"line1": "1 66413U 25258B   25338.64272831  .00000168  00000+0  14277-3 0  9994", "line2": "2 66413  50.0006 296.1162 0013408 330.0056  30.0087 14.23484219  3507"}}, "geometry": {"type": "Point", "coordinates": [-113.78116768426672, -41.72015024063042]}}, {"type": "Feature", "properties": {"norad_id": 66414, "name": "HULIANWANG DIGUI 13C", "group": "last-30-days", "lat": -32.138928586575304, "lon": -97.15640591424841, "alt_km": 807.6828076396896, "timestamp": "2025-12-04T23:34:04.489852+00:00", "meta": {"OBJECT_NAME": "HULIANWANG DIGUI 13C", "OBJECT_ID": "2025-258C", "EPOCH": "2025-12-04T13:39:51.800256", "MEAN_MOTION": 14.23510047, "ECCENTRICITY": 0.00135156, "INCLINATION": 50.0048, "RA_OF_ASC_NODE": 296.4108, "ARG_OF_PERICENTER": 327.7433, "MEAN_ANOMALY": 32.2652, "EPHEMERIS_TYPE": 0, "CLASSIFICATION_TYPE": "U", "NORAD_CAT_ID": 66414, "ELEMENT_SET_NO": 999, "REV_AT_EPOCH": 349, "BSTAR": 0.00015585617, "MEAN_MOTION_DOT": 1.98e-06, "MEAN_MOTION_DDOT": 0}, "tle": {"line1": "1 66414U 25258C   25338.56934954  .00000198  00000+0  15586-3 0  9994", "line2": "2 66414  50.0048 296.4108 0013515 327.7433  32.2652 14.23510047  3497"}}, "geometry": {"type": "Point", "coordinates": [-97.15640591424841, -32.138928586575304]}}, {"type": "Feature", "properties": {"norad_id": 66415, "name": "HULIANWANG DIGUI 13D", "group": "last-30-days", "lat": -10.433795944767951, "lon": -74.27909984159797, "alt_km": 805.8808311043485, "timestamp": "2025-12-04T23:34:04.489862+00:00", "meta": {"OBJECT_NAME": "HULIANWANG DIGUI 13D", "OBJECT_ID": "2025-258D", "EPOCH": "2025-12-04T15:12:27.156960", "MEAN_MOTION": 14.23498332, "ECCENTRICITY": 0.00133657, "INCLINATION": 50.0044, "RA_OF_ASC_NODE": 296.08, "ARG_OF_PERICENTER": 334.6226, "MEAN_ANOMALY": 25.403, "EPHEMERIS_TYPE": 0, "CLASSIFICATION_TYPE": "U", "NORAD_CAT_ID": 66415, "ELEMENT_SET_NO": 999, "REV_AT_EPOCH": 350, "BSTAR": 0.00015412936, "MEAN_MOTION_DOT": 1.94e-06, "MEAN_MOTION_DDOT": 0}, "tle": {"line1": "1 66415U 25258D   25338.63364765  .00000194  00000+0  15413-3 0  9995", "line2": "2 66415  50.0044 296.0800 0013365 334.6226  25.4030 14.23498332  3507"}}, "geometry": {"type": "Point", "coordinates": [-74.27909984159797, -10.433795944767951]}}]}